ORBCOMM FM115           
1 41186U 15081H   24356.87224138  .00001776  00000+0  38674-3 0  9991
2 41186  46.9970 162.4898 0001224 268.5177  91.5570 14.61823624481827
ORBCOMM FM108           
1 41187U 15081J   24356.87925016  .00001461  00000+0  35436-3 0  9999
2 41187  47.0036 223.9890 0002729 205.3852 154.6900 14.57622854480923
ORBCOMM FM117           
1 41188U 15081K   24356.91450246  .00001423  00000+0  34602-3 0  9995
2 41188  46.9998 222.6491 0003087 219.2738 140.7924 14.57623348480973
ORBCOMM FM116           
1 41189U 15081L   24356.90432255  .00002443  00000+0  56772-3 0  9990
2 41189  47.0021 312.5402 0002714 311.1863  48.8788 14.57607602479789
